0 DELTA 1 DEB
1 12179U 78026U   13287.15640443  .00000368  00000-0  23663-3 0  2590
2 12179 099.3223 086.8774 0174434 342.4488 125.2846 14.02394919664350
0 DELTA 1 DEB
1 12179U 78026U   13289.43360233  .00000412  00000-0  26178-3 0  2605
2 12179 099.3227 089.2082 0174340 336.1650 102.0340 14.02398744664677
0 DELTA 1 DEB
1 12179U 78026U   13291.93872433  .00000510  00000-0  31803-3 0  2614
2 12179 099.3230 091.7723 0174310 329.2352 149.5387 14.02401169665023
0 DELTA 1 DEB
1 12179U 78026U   13294.00661270  .00000516  00000-0  32109-3 0  2627
2 12179 099.3229 093.8891 0174309 323.5093 149.6207 14.02403743665311
0 DELTA 1 DEB
1 12179U 78026U   13296.07669822  .00000522  00000-0  32479-3 0  2635
2 12179 099.3226 096.0082 0174276 317.7749 160.8158 14.02406237665604
